#dP2018  8 21  0  0  0.00000000      96 __u+U IGS08 FIT  IAC
## 2015 172800.00000000   900.00000000 58351 0.0000000000000
+   86   C01C02C03C04C05C06C07C08C09C10C11C12C13C14E01E02E03
+        E04E05E07E08E09E11E12E14E18E19E24E26E30G01G02G03G05
+        G06G07G08G09G10G11G12G13G14G15G16G17G18G19G20G21G22
+        G23G24G25G26G27G28G29G30G31G32J01J02J03R01R02R03R04
+        R07R08R09R10R11R13R14R15R16R17R18R19R20R21R22R23R24
+        R26  0  0  0  0  0  0  0  0  0  0  0  0  0  0  0  0
++        12 12 13 12 12  8  8  8  8  8  7  7  8  0  7  7  7
++         7  7  7  7  7  7  7  7  7  7  7  7  7  3  3  3  3
++         3  3  3  3  3  3  3  3  3  3  3  3  3  3  3  3  3
++         3  3  3  3  3  3  3  3  3  3 10 11 12  5  5  5  5
++         5  5  5  5  5  5  5  5  5  5  5  5  5  5  5  5  5
++         8  0  0  0  0  0  0  0  0  0  0  0  0  0  0  0  0
%c M  cc GPS ccc cccc cccc cccc cccc ccccc ccccc ccccc ccccc
%c cc cc ccc ccc cccc cccc cccc cccc ccccc ccccc ccccc ccccc
%f  1.2500000  1.025000000  0.00000000000  0.000000000000000
%f  0.0000000  0.000000000  0.00000000000  0.000000000000000
%i    0    0    0    0      0      0      0      0         0
%i    0    0    0    0      0      0      0      0         0
/* INFORMATION & ANALYSIS CENTER (IAC)            FINAL DATA
/* S/V CLOCKS ARE ALIGNED TO GPS & GLONASS TIME RESPECTIVELY
/* USING THE BROADCAST EPHEMERIS                            
/* PCV:IGS14_2000 OL/AL:FES2004  NONE     YN ORB:CoN CLK:CoN
*  2018 08 21  0 15  0.00000000
PC01 -32287.428996  27076.022653   1039.859197    496.491754
PC02   4380.468993  41936.795566   -614.021602   -117.333277
PC03 -14821.221834  39465.091476    883.160042    417.550149
PC04 -39621.139616  14416.112753    711.460458   -228.882966
PC05  21916.908955  36004.014615   -631.631295    -62.965455
PC06  -8406.277880  23800.436297 -33429.896611    239.100524
PC07 -23902.432080  28620.776585  19359.885285     14.720850
PC08 -12658.660404  37650.162920  14577.603817    492.354786
PC09   4818.083637  30186.397117 -28721.538334     43.481091
PC10  -9941.927614  29497.432553  28403.171478     -7.525299
PC11  15302.078690  21866.710040  -8239.727234   -644.314116
PC12   3840.905427  25715.195718  10316.332764    568.907588
PC13  -4354.622474  42061.695511   1272.482201   -236.861236
PC14      0.000000      0.000000      0.000000 999999.999999
PE01   1470.416528  17545.020962  23796.122900   -417.195348
PE02  -1489.303903 -17534.278285 -23797.929473     24.301164
PE03 -12643.467492 -20415.163716  17304.428224    -67.981506
PE04  26142.561194  13878.139323   -399.534523   -100.463617
PE05   8311.001614 -15011.480327  24125.844044    207.854637
PE07 -24339.392387    836.962115 -16806.195537    -23.680155
PE08 -26262.466103 -13634.229371    409.195756   6519.344833
PE09  24314.228646   -956.847770  16876.378216   6700.193209
PE11  15514.908274  -8375.434925 -23788.653200   3971.205783
PE12  14920.742249  14619.741397 -20969.421328   4872.528789
PE14  -9859.409193  11401.282241  17823.884099   6532.216689
PE18  12877.101503 -17049.053481 -24641.920138   5967.807413
PE19  10918.300828  20280.294666 -18582.834862    -13.004836
PE24  26387.547932 -11583.703674   6743.070870   6536.349679
PE26  -7231.129975  25755.401730  12675.881666   5570.573905
PE30 -19758.662192  -4247.516909 -21629.636893   5579.328688
PG01 -13685.150669  21126.714721   7812.790185    -78.706645
PG02  15994.776173  -2331.800893 -20471.057089     22.069827
PG03 -17732.059452  13310.421656 -14603.490610    124.612902
PG05  26315.342183  -2216.498068  -3883.520994     -2.945909
PG06   9309.216585  14527.735206 -20158.249415    373.842989
PG07  -4365.001313  25003.877605   7187.184908    138.250735
PG08 -15580.177929   4109.000265  21184.731476   -112.352278
PG09   2270.611358  20745.737441 -16451.668400    510.265124
PG10 -12542.354225 -12092.112714  20137.036697    186.000380
PG11 -10481.258127  18853.775493  15054.724914   -723.510953
PG12  22286.952605  -9527.440274 -10845.228405    312.663512
PG13  18325.155295   5018.351031  18457.680234    -90.642497
PG14 -18540.645142 -17632.291037  -7152.582864    -97.573239
PG15  13348.507183  -8848.014844  20994.956888   -348.012375
PG16 -26275.250267  -1233.462635  -5208.086173     12.695768
PG17  14603.791116  22180.331819   2320.595472    -65.029395
PG18 -15920.591766  14486.847823  14975.850370     47.979774
PG19  18361.243717  17373.821033  -8209.723665   -409.997047
PG20  -2199.902572 -15782.008298  21123.444648    514.492559
PG21   -419.178247 -24629.591743  10779.218640   -349.537095
PG22 -23127.757029  10823.778900  -7022.837654   -495.278166
PG23  -7409.705298  14413.295490 -20674.201921   -212.440200
PG24  14833.192285 -18480.333694  11570.477900    -54.259245
PG25   8962.507519 -15225.423533 -19939.182836   -634.707398
PG26 -21649.987572  -6133.749416 -14226.090972    -45.388276
PG27 -20087.695523  -7507.653102  15753.796822    352.289225
PG28   8710.723181  13690.550695  21638.959514    739.506318
PG29   -117.028670 -19959.780833 -17549.591341    392.145402
PG30   3316.890068  21108.179684  15685.372486     34.986563
PG31 -10676.192296 -12317.019486 -20852.241032     99.255317
PG32 -16255.153086 -21016.106213   1530.024558   -446.265364
PJ01 -30089.848731  19708.589685 -17293.850973   -134.499045
PJ02 -28150.822039  31022.296179  -1026.049167     -8.140572
PJ03 -25284.224993  23305.977627  29500.650516     -2.526328
PR01 -23047.915067  -9381.244911   5574.299328     30.821979
PR02 -21396.558776    380.002657 -13880.744375    325.714042
PR03  -6541.566189   9370.608537 -22767.104208    141.076793
PR04  12609.222691  12778.117317 -18096.812104    273.147527
PR07   5999.451506  -9590.662986  22895.524772    -45.255910
PR08 -11923.863371 -12847.121734  18586.603901     21.691918
PR09  20232.905065 -13334.861747   8100.381201     24.262779
PR10  14722.486682 -18964.366688  -8763.929215     30.122552
PR11      4.671658 -13941.394087 -21354.628305    -38.351142
PR13 -19910.980502  13489.638993  -8491.418724    -13.783451
PR14 -14565.653674  19073.308568   8629.514037     30.239859
PR15  -4062.272748  15961.148878  19524.406939    -14.977636
PR16  13550.878698   1240.161803  21535.730381     99.793415
PR17  -2476.026027  20425.153992  15107.429072    157.684481
PR18   6114.661428  24715.726118   -969.669137    207.535635
PR19  11031.270142  15686.688829 -16829.811930    -58.302298
PR20   9825.308072  -4131.892944 -23176.328712   -349.401763
PR21   2227.602807 -20617.975872 -14838.322801      0.972720
PR22  -6988.983115 -24390.907314   3192.356568    -59.621764
PR23 -11686.168122 -11651.962631  19435.638625    173.215748
PR24  -9464.598293   5474.378009  23013.750782   -170.367285
PR26  10130.336391  -2966.149773 -23214.325974     42.150858
EOF
